{
  "type": "FeatureCollection",
  "features": [
    {
      "type": "Feature",
      "properties": {
        "norad_id": 35462,
        "name": "COSMOS 2251 DEB",
        "group": "cosmos-2251-debris",
        "lat": 13.852991673607963,
        "lon": 102.94348753149062,
        "alt_km": 853.3728107874322,
        "timestamp": "2025-12-02T15:49:07.590599+00:00",
        "meta_object_name": "COSMOS 2251 DEB",
        "meta_object_id": "1993-036ALG",
        "meta_epoch": "2025-12-01T03:45:45.448128",
        "meta_mean_motion": 14.29124029,
        "meta_eccentricity": 0.00870444,
        "meta_inclination": 74.036,
        "meta_ra_of_asc_node": 289.718,
        "meta_arg_of_pericenter": 327.319,
        "meta_mean_anomaly": 32.2589,
        "meta_ephemeris_type": 0,
        "meta_classification_type": "U",
        "meta_norad_cat_id": 35462,
        "meta_element_set_no": 999,
        "meta_rev_at_epoch": 66215,
        "meta_bstar": 0.0017949723,
        "meta_mean_motion_dot": 4.718e-05,
        "meta_mean_motion_ddot": 0,
        "tle_line1": "1 35462U 93036ALG 25335.15677602  .00004718  00000+0  17950-2 0  9996",
        "tle_line2": "2 35462  74.0360 289.7180 0087044 327.3190  32.2589 14.29124029662158"
      },
      "geometry": {
        "type": "Point",
        "coordinates": [
          102.94348753149062,
          13.852991673607963
        ]
      }
    },
    {
      "type": "Feature",
      "properties": {
        "norad_id": 35465,
        "name": "COSMOS 2251 DEB",
        "group": "cosmos-2251-debris",
        "lat": 36.75344704015356,
        "lon": -131.79877623617722,
        "alt_km": 699.0249982496625,
        "timestamp": "2025-12-02T15:49:07.590609+00:00",
        "meta_object_name": "COSMOS 2251 DEB",
        "meta_object_id": "1993-036ALK",
        "meta_epoch": "2025-11-29T22:48:34.232544",
        "meta_mean_motion": 14.44263019,
        "meta_eccentricity": 0.00634289,
        "meta_inclination": 73.9997,
        "meta_ra_of_asc_node": 220.8763,
        "meta_arg_of_pericenter": 24.0529,
        "meta_mean_anomaly": 336.3567,
        "meta_ephemeris_type": 0,
        "meta_classification_type": "U",
        "meta_norad_cat_id": 35465,
        "meta_element_set_no": 999,
        "meta_rev_at_epoch": 87057,
        "meta_bstar": 0.00049692277,
        "meta_mean_motion_dot": 1.723e-05,
        "meta_mean_motion_ddot": 0,
        "tle_line1": "1 35465U 93036ALK 25333.95039621  .00001723  00000+0  49692-3 0  9990",
        "tle_line2": "2 35465  73.9997 220.8763 0063428  24.0529 336.3567 14.44263019870576"
      },
      "geometry": {
        "type": "Point",
        "coordinates": [
          -131.79877623617722,
          36.75344704015356
        ]
      }
    },
    {
      "type": "Feature",
      "properties": {
        "norad_id": 35469,
        "name": "COSMOS 2251 DEB",
        "group": "cosmos-2251-debris",
        "lat": 32.83113901895026,
        "lon": 53.475371957317115,
        "alt_km": 777.3860147115456,
        "timestamp": "2025-12-02T15:49:07.590619+00:00",
        "meta_object_name": "COSMOS 2251 DEB",
        "meta_object_id": "1993-036ALP",
        "meta_epoch": "2025-12-01T11:30:18.514944",
        "meta_mean_motion": 14.49801168,
        "meta_eccentricity": 0.00774879,
        "meta_inclination": 74.0179,
        "meta_ra_of_asc_node": 45.0354,
        "meta_arg_of_pericenter": 203.0672,
        "meta_mean_anomaly": 156.7004,
        "meta_ephemeris_type": 0,
        "meta_classification_type": "U",
        "meta_norad_cat_id": 35469,
        "meta_element_set_no": 999,
        "meta_rev_at_epoch": 87948,
        "meta_bstar": 0.0001544866,
        "meta_mean_motion_dot": 5.89e-06,
        "meta_mean_motion_ddot": 0,
        "tle_line1": "1 35469U 93036ALP 25335.47938096  .00000589  00000+0  15449-3 0  9999",
        "tle_line2": "2 35469  74.0179  45.0354 0077487 203.0672 156.7004 14.49801168879482"
      },
      "geometry": {
        "type": "Point",
        "coordinates": [
          53.475371957317115,
          32.83113901895026
        ]
      }
    },
    {
      "type": "Feature",
      "properties": {
        "norad_id": 35475,
        "name": "COSMOS 2251 DEB",
        "group": "cosmos-2251-debris",
        "lat": -65.86014953585556,
        "lon": 44.91320291544905,
        "alt_km": 654.9836407877137,
        "timestamp": "2025-12-02T15:49:07.590629+00:00",
        "meta_object_name": "COSMOS 2251 DEB",
        "meta_object_id": "1993-036ALV",
        "meta_epoch": "2025-12-02T06:30:21.330144",
        "meta_mean_motion": 14.69388033,
        "meta_eccentricity": 0.00213084,
        "meta_inclination": 74.022,
        "meta_ra_of_asc_node": 185.9231,
        "meta_arg_of_pericenter": 259.5642,
        "meta_mean_anomaly": 100.3127,
        "meta_ephemeris_type": 0,
        "meta_classification_type": "U",
        "meta_norad_cat_id": 35475,
        "meta_element_set_no": 999,
        "meta_rev_at_epoch": 65463,
        "meta_bstar": 0.0018441399,
        "meta_mean_motion_dot": 0.00010931,
        "meta_mean_motion_ddot": 0,
        "tle_line1": "1 35475U 93036ALV 25336.27108021  .00010931  00000+0  18441-2 0  9998",
        "tle_line2": "2 35475  74.0220 185.9231 0021308 259.5642 100.3127 14.69388033654630"
      },
      "geometry": {
        "type": "Point",
        "coordinates": [
          44.91320291544905,
          -65.86014953585556
        ]
      }
    },
    {
      "type": "Feature",
      "properties": {
        "norad_id": 35476,
        "name": "COSMOS 2251 DEB",
        "group": "cosmos-2251-debris",
        "lat": -58.6271420090885,
        "lon": -71.18206149905804,
        "alt_km": 663.0558630142859,
        "timestamp": "2025-12-02T15:49:07.590639+00:00",
        "meta_object_name": "COSMOS 2251 DEB",
        "meta_object_id": "1993-036ALW",
        "meta_epoch": "2025-12-01T18:07:58.546272",
        "meta_mean_motion": 14.75256921,
        "meta_eccentricity": 0.00172439,
        "meta_inclination": 73.9778,
        "meta_ra_of_asc_node": 82.4733,
        "meta_arg_of_pericenter": 71.028,
        "meta_mean_anomaly": 54.6813,
        "meta_ephemeris_type": 0,
        "meta_classification_type": "U",
        "meta_norad_cat_id": 35476,
        "meta_element_set_no": 999,
        "meta_rev_at_epoch": 87725,
        "meta_bstar": 0.0019689738,
        "meta_mean_motion_dot": 0.00013352,
        "meta_mean_motion_ddot": 0,
        "tle_line1": "1 35476U 93036ALW 25335.75553873  .00013352  00000+0  19690-2 0  9997",
        "tle_line2": "2 35476  73.9778  82.4733 0017243  71.0280  54.6813 14.75256921877258"
      },
      "geometry": {
        "type": "Point",
        "coordinates": [
          -71.18206149905804,
          -58.6271420090885
        ]
      }
    },
    {
      "type": "Feature",
      "properties": {
        "norad_id": 35580,
        "name": "COSMOS 2251 DEB",
        "group": "cosmos-2251-debris",
        "lat": 58.0528668478763,
        "lon": -136.5359756266745,
        "alt_km": 1104.5360501710884,
        "timestamp": "2025-12-02T15:49:07.590650+00:00",
        "meta_object_name": "COSMOS 2251 DEB",
        "meta_object_id": "1993-036ALX",
        "meta_epoch": "2025-11-11T02:25:47.460864",
        "meta_mean_motion": 13.83664367,
        "meta_eccentricity": 0.0284653,
        "meta_inclination": 73.9022,
        "meta_ra_of_asc_node": 232.5156,
        "meta_arg_of_pericenter": 243.9426,
        "meta_mean_anomaly": 113.2144,
        "meta_ephemeris_type": 0,
        "meta_classification_type": "U",
        "meta_norad_cat_id": 35580,
        "meta_element_set_no": 999,
        "meta_rev_at_epoch": 61819,
        "meta_bstar": 0.0015271116,
        "meta_mean_motion_dot": 2.282e-05,
        "meta_mean_motion_ddot": 0,
        "tle_line1": "1 35580U 93036ALX 25315.10124376  .00002282  00000+0  15271-2 0  9993",
        "tle_line2": "2 35580  73.9022 232.5156 0284653 243.9426 113.2144 13.83664367618196"
      },
      "geometry": {
        "type": "Point",
        "coordinates": [
          -136.5359756266745,
          58.0528668478763
        ]
      }
    },
    {
      "type": "Feature",
      "properties": {
        "norad_id": 35583,
        "name": "COSMOS 2251 DEB",
        "group": "cosmos-2251-debris",
        "lat": 68.26547408475442,
        "lon": -85.29088897558263,
        "alt_km": 1332.6130883315245,
        "timestamp": "2025-12-02T15:49:07.590660+00:00",
        "meta_object_name": "COSMOS 2251 DEB",
        "meta_object_id": "1993-036AMA",
        "meta_epoch": "2025-12-01T09:18:45.701280",
        "meta_mean_motion": 13.55311164,
        "meta_eccentricity": 0.03859858,
        "meta_inclination": 73.9177,
        "meta_ra_of_asc_node": 230.413,
        "meta_arg_of_pericenter": 256.8414,
        "meta_mean_anomaly": 98.9367,
        "meta_ephemeris_type": 0,
        "meta_classification_type": "U",
        "meta_norad_cat_id": 35583,
        "meta_element_set_no": 999,
        "meta_rev_at_epoch": 82258,
        "meta_bstar": 0.00049161142,
        "meta_mean_motion_dot": 5.24e-06,
        "meta_mean_motion_ddot": 0,
        "tle_line1": "1 35583U 93036AMA 25335.38802895  .00000524  00000+0  49161-3 0  9990",
        "tle_line2": "2 35583  73.9177 230.4130 0385985 256.8414  98.9367 13.55311164822588"
      },
      "geometry": {
        "type": "Point",
        "coordinates": [
          -85.29088897558263,
          68.26547408475442
        ]
      }
    }
  ]
}